OBJECT_NAME,OBJECT_ID,EPOCH,MEAN_MOTION,ECCENTRICITY,INCLINATION,RA_OF_ASC_NODE,ARG_OF_PERICENTER,MEAN_ANOMALY,EPHEMERIS_TYPE,CLASSIFICATION_TYPE,NORAD_CAT_ID,ELEMENT_SET_NO,REV_AT_EPOCH,BSTAR,MEAN_MOTION_DOT,MEAN_MOTION_DDOT
STARLINK-36352,2026-016G,2026-07-06T16:25:54.398496,15.33458885,.00008109,97.2847,247.4605,86.7380,273.3956,0,U,67567,999,2510,.70926771E-3,.22902E-3,0
STARLINK-36435,2026-016H,2026-07-06T16:10:15.308256,15.33445912,.00015345,97.2848,247.4743,89.7316,270.4103,0,U,67568,999,2510,.84286835E-3,.27235E-3,0
STARLINK-36575,2026-016J,2026-07-06T17:30:41.012640,15.33462741,.00007377,97.2839,248.4622,83.1358,276.9969,0,U,67569,999,2517,.10292208E-2,.33317E-3,0
STARLINK-36562,2026-016K,2026-07-06T16:21:58.922208,15.33498494,.00006262,97.2831,247.4636,98.8393,261.2921,0,U,67570,999,2510,.190645E-2,.62084E-3,0
STARLINK-36578,2026-016L,2026-07-07T02:40:36.096096,15.33475282,.00008236,97.2845,247.7956,175.7383,184.3867,0,U,67571,999,2516,.868815E-3,.28105E-3,0
STARLINK-36350,2026-016M,2026-07-07T02:24:56.575584,15.33475987,.00008379,97.2851,247.8128,108.2737,251.8597,0,U,67572,999,2516,.96947422E-3,.31384E-3,0
STARLINK-36588,2026-016N,2026-07-07T02:28:51.682080,15.33479702,.00013518,97.2845,247.8095,100.9790,259.1605,0,U,67573,999,2516,.89874445E-3,.29084E-3,0
STARLINK-36594,2026-016P,2026-07-07T03:15:50.158080,15.33478288,.00008842,97.2846,247.9189,88.0215,272.1129,0,U,67574,999,2517,.70211453E-3,.22684E-3,0
STARLINK-36400,2026-016Q,2026-07-06T16:45:27.915264,15.33435103,.00017909,97.2849,247.4422,68.5887,291.5546,0,U,67575,999,2510,.39756325E-3,.12778E-3,0
STARLINK-36591,2026-016R,2026-07-07T03:27:35.483616,15.33466235,.00010785,97.2846,247.9075,118.7923,241.3428,0,U,67576,999,2517,.62360732E-3,.20124E-3,0
STARLINK-36590,2026-016S,2026-07-07T03:47:10.639392,15.33453469,.00013343,97.2841,247.8894,87.0492,273.0903,0,U,67577,999,2517,.9247188E-3,.29905E-3,0
STARLINK-36613,2026-016T,2026-07-06T17:24:37.723104,15.33485359,.00005682,97.2844,247.4049,323.4919,36.6285,0,U,67578,999,2510,.96271378E-3,.31173E-3,0
STARLINK-36571,2026-016U,2026-07-07T02:17:07.176480,15.33449765,.00012674,97.2844,247.8212,96.6067,263.5320,0,U,67579,999,2516,.52753339E-3,.16997E-3,0
STARLINK-36612,2026-016V,2026-07-06T17:36:23.256000,15.33457078,.00007559,97.2843,247.5464,95.3329,264.8000,0,U,67580,999,2511,.9024462E-3,.29183E-3,0
STARLINK-36632,2026-016W,2026-07-07T03:35:25.182528,15.33479008,.00017505,97.2855,247.9010,100.2778,259.8662,0,U,67581,999,2517,.86568549E-3,.28007E-3,0
STARLINK-36609,2026-016X,2026-07-07T13:18:47.965248,15.33457480,.00014449,97.2845,248.2670,97.7663,262.3744,0,U,67582,999,2523,.21808439E-3,.6975E-4,0
STARLINK-36577,2026-016Y,2026-07-06T17:32:28.192704,15.33460823,.0000286,97.2837,247.5498,137.4558,222.6707,0,U,67583,999,2511,.10218202E-2,.33074E-3,0
STARLINK-36419,2026-016Z,2026-07-07T03:11:55.652064,15.33472903,.0000628,97.2837,247.9201,309.6192,50.4995,0,U,67584,999,2517,.87452341E-3,.28288E-3,0
STARLINK-36560,2026-016AA,2026-07-06T17:20:43.375200,15.33460340,.00002402,97.2836,247.4100,267.0756,93.0460,0,U,67585,999,2510,.10108594E-2,.32716E-3,0
NAVSTAR 85 (USA 581),2026-017A,2026-07-07T03:21:17.835264,2.00570703,.00216264,55.1006,87.9545,259.5022,100.2924,0,U,67588,999,43201,0,-.2E-6,0
STARLINK-36641,2026-018A,2026-07-06T17:16:32.478240,15.33459591,.00012295,97.2839,252.2070,93.3508,266.7875,0,U,67589,999,2557,.10757019E-2,.34829E-3,0
STARLINK-36376,2026-018B,2026-07-06T16:49:05.583648,15.33461020,.00008781,97.2844,252.2346,177.1994,182.9254,0,U,67590,999,2557,-.34733953E-3,-.11277E-3,0
STARLINK-36391,2026-018C,2026-07-06T17:36:07.001568,15.33453817,.00010626,97.2844,252.1918,78.7413,281.3949,0,U,67591,999,2557,.93542251E-3,.30253E-3,0
STARLINK-36603,2026-018D,2026-07-06T16:41:17.839968,15.33467751,.00012682,97.2853,252.2434,119.9440,240.1929,0,U,67592,999,2557,.11391291E-2,.36907E-3,0
STARLINK-36634,2026-018E,2026-07-07T11:21:03.958272,15.33466372,.00002719,97.2843,253.0212,97.2235,262.9038,0,U,67593,999,2569,.42025239E-3,.13526E-3,0
STARLINK-36638,2026-018F,2026-07-06T17:28:16.978656,15.33461180,.00006524,97.2836,252.1975,123.7038,236.4267,0,U,67594,999,2557,.94740718E-3,.3065E-3,0
STARLINK-36628,2026-018G,2026-07-06T16:56:57.929856,15.33455312,.00006476,97.2843,252.2259,108.5772,251.5542,0,U,67595,999,2557,.12266601E-2,.39747E-3,0
STARLINK-36629,2026-018H,2026-07-06T17:08:42.556416,15.33455936,.00008582,97.2846,252.2163,80.3118,279.8222,0,U,67596,999,2557,.88685653E-3,.28674E-3,0
STARLINK-36384,2026-018J,2026-07-06T16:09:58.650336,15.33480534,.00011244,97.2834,252.2733,341.8236,18.2967,0,U,67597,999,2557,.1473883E-2,.47863E-3,0
STARLINK-36358,2026-018K,2026-07-06T17:00:52.774560,15.33454820,.00007821,97.2837,252.2226,104.0157,256.1173,0,U,67598,999,2557,.11492157E-2,.3722E-3,0
