STARLINK-36352          
1 67567U 26016G   26187.68465739  .00022902  00000+0  70927-3 0  9990
2 67567  97.2847 247.4605 0000810  86.7380 273.3956 15.33458885 25102
STARLINK-36435          
1 67568U 26016H   26187.67378829  .00027235  00000+0  84287-3 0  9991
2 67568  97.2848 247.4743 0001534  89.7316 270.4103 15.33445912 25102
STARLINK-36575          
1 67569U 26016J   26187.72964135  .00033317  00000+0  10292-2 0  9991
2 67569  97.2839 248.4622 0000737  83.1358 276.9969 15.33462741 25175
STARLINK-36562          
1 67570U 26016K   26187.68193197  .00062084  00000+0  19065-2 0  9990
2 67570  97.2831 247.4636 0000626  98.8393 261.2921 15.33498494 25104
STARLINK-36578          
1 67571U 26016L   26188.11152889  .00028105  00000+0  86882-3 0  9991
2 67571  97.2845 247.7956 0000823 175.7383 184.3867 15.33475282 25161
STARLINK-36350          
1 67572U 26016M   26188.10065481  .00031384  00000+0  96947-3 0  9998
2 67572  97.2851 247.8128 0000837 108.2737 251.8597 15.33475987 25162
STARLINK-36588          
1 67573U 26016N   26188.10337595  .00029084  00000+0  89874-3 0  9992
2 67573  97.2845 247.8095 0001351 100.9790 259.1605 15.33479702 25169
STARLINK-36594          
1 67574U 26016P   26188.13599720  .00022684  00000+0  70211-3 0  9990
2 67574  97.2846 247.9189 0000884  88.0215 272.1129 15.33478288 25179
STARLINK-36400          
1 67575U 26016Q   26187.69823976  .00012778  00000+0  39756-3 0  9996
2 67575  97.2849 247.4422 0001790  68.5887 291.5546 15.33435103 25103
STARLINK-36591          
1 67576U 26016R   26188.14416069  .00020124  00000+0  62361-3 0  9991
2 67576  97.2846 247.9075 0001078 118.7923 241.3428 15.33466235 25177
STARLINK-36590          
1 67577U 26016S   26188.15776203  .00029905  00000+0  92472-3 0  9994
2 67577  97.2841 247.8894 0001334  87.0492 273.0903 15.33453469 25170
STARLINK-36613          
1 67578U 26016T   26187.72543661  .00031173  00000+0  96271-3 0  9998
2 67578  97.2844 247.4049 0000568 323.4919  36.6285 15.33485359 25103
STARLINK-36571          
1 67579U 26016U   26188.09522195  .00016997  00000+0  52753-3 0  9993
2 67579  97.2844 247.8212 0001267  96.6067 263.5320 15.33449765 25168
STARLINK-36612          
1 67580U 26016V   26187.73360250  .00029183  00000+0  90245-3 0  9996
2 67580  97.2843 247.5464 0000755  95.3329 264.8000 15.33457078 25113
STARLINK-36632          
1 67581U 26016W   26188.14959702  .00028007  00000+0  86569-3 0  9997
2 67581  97.2855 247.9010 0001750 100.2778 259.8662 15.33479008 25179
STARLINK-36609          
1 67582U 26016X   26188.55472182  .00006975  00000+0  21808-3 0  9990
2 67582  97.2845 248.2670 0001444  97.7663 262.3744 15.33457480 25235
STARLINK-36577          
1 67583U 26016Y   26187.73088186  .00033074  00000+0  10218-2 0  9999
2 67583  97.2837 247.5498 0000286 137.4558 222.6707 15.33460823 25115
STARLINK-36419          
1 67584U 26016Z   26188.13328301  .00028288  00000+0  87452-3 0  9997
2 67584  97.2837 247.9201 0000628 309.6192  50.4995 15.33472903 25173
STARLINK-36560          
1 67585U 26016AA  26187.72272425  .00032716  00000+0  10109-2 0  9992
2 67585  97.2836 247.4100 0000240 267.0756  93.0460 15.33460340 25104
NAVSTAR 85 (USA 581)    
1 67588U 26017A   26188.13978976 -.00000020  00000+0  00000+0 0  9996
2 67588  55.1006  87.9545 0021626 259.5022 100.2924  2.00570703432015
STARLINK-36641          
1 67589U 26018A   26187.71982035  .00034829  00000+0  10757-2 0  9998
2 67589  97.2839 252.2070 0001229  93.3508 266.7875 15.33459591 25570
STARLINK-36376          
1 67590U 26018B   26187.70075907 -.00011277  00000+0 -34734-3 0  9996
2 67590  97.2844 252.2346 0000878 177.1994 182.9254 15.33461020 25573
STARLINK-36391          
1 67591U 26018C   26187.73341437  .00030253  00000+0  93542-3 0  9999
2 67591  97.2844 252.1918 0001062  78.7413 281.3949 15.33453817 25576
STARLINK-36603          
1 67592U 26018D   26187.69534537  .00036907  00000+0  11391-2 0  9993
2 67592  97.2853 252.2434 0001268 119.9440 240.1929 15.33467751 25570
STARLINK-36634          
1 67593U 26018E   26188.47296248  .00013526  00000+0  42025-3 0  9996
2 67593  97.2843 253.0212 0000271  97.2235 262.9038 15.33466372 25690
STARLINK-36638          
1 67594U 26018F   26187.72797429  .00030650  00000+0  94741-3 0  9990
2 67594  97.2836 252.1975 0000652 123.7038 236.4267 15.33461180 25577
STARLINK-36628          
1 67595U 26018G   26187.70622604  .00039747  00000+0  12267-2 0  9999
2 67595  97.2843 252.2259 0000647 108.5772 251.5542 15.33455312 25576
STARLINK-36629          
1 67596U 26018H   26187.71438144  .00028674  00000+0  88686-3 0  9991
2 67596  97.2846 252.2163 0000858  80.3118 279.8222 15.33455936 25579
STARLINK-36384          
1 67597U 26018J   26187.67359549  .00047863  00000+0  14739-2 0  9996
2 67597  97.2834 252.2733 0001124 341.8236  18.2967 15.33480534 25576
STARLINK-36358          
1 67598U 26018K   26187.70894415  .00037220  00000+0  11492-2 0  9996
2 67598  97.2837 252.2226 0000782 104.0157 256.1173 15.33454820 25578
